{
  "type": "FeatureCollection",
  "features": [
    {
      "type": "Feature",
      "properties": {
        "norad_id": 66892,
        "name": "STARLINK-35883",
        "group": "last-30-days",
        "lat": -53.12151143641088,
        "lon": -62.66847109133004,
        "alt_km": 353.95021868695585,
        "timestamp": "2025-12-22T09:53:36.145705+00:00",
        "meta_object_name": "STARLINK-35883",
        "meta_object_id": "2025-283Q",
        "meta_epoch": "2025-12-22T04:00:01.998720",
        "meta_mean_motion": 15.74549487,
        "meta_eccentricity": 0.0001464,
        "meta_inclination": 53.1579,
        "meta_ra_of_asc_node": 26.5769,
        "meta_arg_of_pericenter": 105.7281,
        "meta_mean_anomaly": 213.2041,
        "meta_ephemeris_type": 0,
        "meta_classification_type": "U",
        "meta_norad_cat_id": 66892,
        "meta_element_set_no": 999,
        "meta_rev_at_epoch": 388,
        "meta_bstar": -0.010614,
        "meta_mean_motion_dot": -0.01401393,
        "meta_mean_motion_ddot": 0,
        "tle_line1": "1 66892U 25283Q   25356.16668980 -.01401393  00000+0 -10614-1 0  9991",
        "tle_line2": "2 66892  53.1579  26.5769 0001464 105.7281 213.2041 15.74549487  3883"
      },
      "geometry": {
        "type": "Point",
        "coordinates": [
          -62.66847109133004,
          -53.12151143641088
        ]
      }
    },
    {
      "type": "Feature",
      "properties": {
        "norad_id": 66893,
        "name": "STARLINK-36033",
        "group": "last-30-days",
        "lat": -53.02704429943524,
        "lon": -59.505382880343056,
        "alt_km": 353.5895301111768,
        "timestamp": "2025-12-22T09:53:36.145715+00:00",
        "meta_object_name": "STARLINK-36033",
        "meta_object_id": "2025-283R",
        "meta_epoch": "2025-12-22T04:00:01.998720",
        "meta_mean_motion": 15.74558494,
        "meta_eccentricity": 9.7e-05,
        "meta_inclination": 53.158,
        "meta_ra_of_asc_node": 26.5731,
        "meta_arg_of_pericenter": 77.275,
        "meta_mean_anomaly": 243.5671,
        "meta_ephemeris_type": 0,
        "meta_classification_type": "U",
        "meta_norad_cat_id": 66893,
        "meta_element_set_no": 999,
        "meta_rev_at_epoch": 394,
        "meta_bstar": -0.010658,
        "meta_mean_motion_dot": -0.01406746,
        "meta_mean_motion_ddot": 0,
        "tle_line1": "1 66893U 25283R   25356.16668980 -.01406746  00000+0 -10658-1 0  9997",
        "tle_line2": "2 66893  53.1580  26.5731 0000970  77.2750 243.5671 15.74558494  3940"
      },
      "geometry": {
        "type": "Point",
        "coordinates": [
          -59.505382880343056,
          -53.02704429943524
        ]
      }
    },
    {
      "type": "Feature",
      "properties": {
        "norad_id": 66894,
        "name": "STARLINK-35718",
        "group": "last-30-days",
        "lat": -52.847413852186065,
        "lon": -56.34469057133871,
        "alt_km": 353.72157826107195,
        "timestamp": "2025-12-22T09:53:36.145725+00:00",
        "meta_object_name": "STARLINK-35718",
        "meta_object_id": "2025-283S",
        "meta_epoch": "2025-12-22T04:00:01.998720",
        "meta_mean_motion": 15.74550938,
        "meta_eccentricity": 0.0001108,
        "meta_inclination": 53.1578,
        "meta_ra_of_asc_node": 26.5694,
        "meta_arg_of_pericenter": 91.6429,
        "meta_mean_anomaly": 231.1193,
        "meta_ephemeris_type": 0,
        "meta_classification_type": "U",
        "meta_norad_cat_id": 66894,
        "meta_element_set_no": 999,
        "meta_rev_at_epoch": 394,
        "meta_bstar": -0.010581,
        "meta_mean_motion_dot": -0.01397397,
        "meta_mean_motion_ddot": 0,
        "tle_line1": "1 66894U 25283S   25356.16668980 -.01397397  00000+0 -10581-1 0  9994",
        "tle_line2": "2 66894  53.1578  26.5694 0001108  91.6429 231.1193 15.74550938  3940"
      },
      "geometry": {
        "type": "Point",
        "coordinates": [
          -56.34469057133871,
          -52.847413852186065
        ]
      }
    },
    {
      "type": "Feature",
      "properties": {
        "norad_id": 66895,
        "name": "STARLINK-35971",
        "group": "last-30-days",
        "lat": -52.233235731288225,
        "lon": -50.07250473932575,
        "alt_km": 353.71029600373913,
        "timestamp": "2025-12-22T09:53:36.145735+00:00",
        "meta_object_name": "STARLINK-35971",
        "meta_object_id": "2025-283T",
        "meta_epoch": "2025-12-22T04:00:01.998720",
        "meta_mean_motion": 15.74655541,
        "meta_eccentricity": 0.0001191,
        "meta_inclination": 53.1582,
        "meta_ra_of_asc_node": 26.5604,
        "meta_arg_of_pericenter": 71.8337,
        "meta_mean_anomaly": 254.7631,
        "meta_ephemeris_type": 0,
        "meta_classification_type": "U",
        "meta_norad_cat_id": 66895,
        "meta_element_set_no": 999,
        "meta_rev_at_epoch": 394,
        "meta_bstar": -0.012004,
        "meta_mean_motion_dot": -0.01598275,
        "meta_mean_motion_ddot": 0,
        "tle_line1": "1 66895U 25283T   25356.16668980 -.01598275  00000+0 -12004-1 0  9995",
        "tle_line2": "2 66895  53.1582  26.5604 0001191  71.8337 254.7631 15.74655541  3941"
      },
      "geometry": {
        "type": "Point",
        "coordinates": [
          -50.07250473932575,
          -52.233235731288225
        ]
      }
    },
    {
      "type": "Feature",
      "properties": {
        "norad_id": 66896,
        "name": "STARLINK-35791",
        "group": "last-30-days",
        "lat": -52.58536328176394,
        "lon": -53.22258843232251,
        "alt_km": 353.2694837876579,
        "timestamp": "2025-12-22T09:53:36.145747+00:00",
        "meta_object_name": "STARLINK-35791",
        "meta_object_id": "2025-283U",
        "meta_epoch": "2025-12-22T04:00:01.998720",
        "meta_mean_motion": 15.74565218,
        "meta_eccentricity": 5.6e-05,
        "meta_inclination": 53.158,
        "meta_ra_of_asc_node": 26.5644,
        "meta_arg_of_pericenter": 69.1335,
        "meta_mean_anomaly": 255.5415,
        "meta_ephemeris_type": 0,
        "meta_classification_type": "U",
        "meta_norad_cat_id": 66896,
        "meta_element_set_no": 999,
        "meta_rev_at_epoch": 394,
        "meta_bstar": -0.010772,
        "meta_mean_motion_dot": -0.01420254,
        "meta_mean_motion_ddot": 0,
        "tle_line1": "1 66896U 25283U   25356.16668980 -.01420254  00000+0 -10772-1 0  9997",
        "tle_line2": "2 66896  53.1580  26.5644 0000560  69.1335 255.5415 15.74565218  3941"
      },
      "geometry": {
        "type": "Point",
        "coordinates": [
          -53.22258843232251,
          -52.58536328176394
        ]
      }
    },
    {
      "type": "Feature",
      "properties": {
        "norad_id": 66897,
        "name": "STARLINK-36079",
        "group": "last-30-days",
        "lat": -51.81028248880292,
        "lon": -47.05742009634876,
        "alt_km": 353.8905308945723,
        "timestamp": "2025-12-22T09:53:36.145757+00:00",
        "meta_object_name": "STARLINK-36079",
        "meta_object_id": "2025-283V",
        "meta_epoch": "2025-12-22T04:00:01.998720",
        "meta_mean_motion": 15.74575741,
        "meta_eccentricity": 0.0001352,
        "meta_inclination": 53.1579,
        "meta_ra_of_asc_node": 26.5564,
        "meta_arg_of_pericenter": 81.7074,
        "meta_mean_anomaly": 246.842,
        "meta_ephemeris_type": 0,
        "meta_classification_type": "U",
        "meta_norad_cat_id": 66897,
        "meta_element_set_no": 999,
        "meta_rev_at_epoch": 394,
        "meta_bstar": -0.011226,
        "meta_mean_motion_dot": -0.01473958,
        "meta_mean_motion_ddot": 0,
        "tle_line1": "1 66897U 25283V   25356.16668980 -.01473958  00000+0 -11226-1 0  9992",
        "tle_line2": "2 66897  53.1579  26.5564 0001352  81.7074 246.8420 15.74575741  3942"
      },
      "geometry": {
        "type": "Point",
        "coordinates": [
          -47.05742009634876,
          -51.81028248880292
        ]
      }
    },
    {
      "type": "Feature",
      "properties": {
        "norad_id": 66898,
        "name": "STARLINK-36065",
        "group": "last-30-days",
        "lat": -51.312454912862655,
        "lon": -44.10654449897934,
        "alt_km": 353.7064052415808,
        "timestamp": "2025-12-22T09:53:36.145774+00:00",
        "meta_object_name": "STARLINK-36065",
        "meta_object_id": "2025-283W",
        "meta_epoch": "2025-12-22T04:00:01.998720",
        "meta_mean_motion": 15.74581035,
        "meta_eccentricity": 0.0001113,
        "meta_inclination": 53.158,
        "meta_ra_of_asc_node": 26.5521,
        "meta_arg_of_pericenter": 91.243,
        "meta_mean_anomaly": 239.2031,
        "meta_ephemeris_type": 0,
        "meta_classification_type": "U",
        "meta_norad_cat_id": 66898,
        "meta_element_set_no": 999,
        "meta_rev_at_epoch": 394,
        "meta_bstar": -0.011123,
        "meta_mean_motion_dot": -0.01462232,
        "meta_mean_motion_ddot": 0,
        "tle_line1": "1 66898U 25283W   25356.16668980 -.01462232  00000+0 -11123-1 0  9992",
        "tle_line2": "2 66898  53.1580  26.5521 0001113  91.2430 239.2031 15.74581035  3942"
      },
      "geometry": {
        "type": "Point",
        "coordinates": [
          -44.10654449897934,
          -51.312454912862655
        ]
      }
    }
  ]
}